OBJECT_NAME,OBJECT_ID,EPOCH,MEAN_MOTION,ECCENTRICITY,INCLINATION,RA_OF_ASC_NODE,ARG_OF_PERICENTER,MEAN_ANOMALY,EPHEMERIS_TYPE,CLASSIFICATION_TYPE,NORAD_CAT_ID,ELEMENT_SET_NO,REV_AT_EPOCH,BSTAR,MEAN_MOTION_DOT,MEAN_MOTION_DDOT
STARLINK-37321,2026-114S,2026-06-09T09:49:59.514240,15.80899204,.0000957,53.1594,241.0921,76.8683,283.2446,0,U,69198,999,354,.62985E-3,.125586E-2,0
STARLINK-37406,2026-114T,2026-06-09T09:48:54.711648,15.80902050,.0000941,53.1588,241.0861,68.1930,291.9192,0,U,69199,999,354,.76172E-3,.152526E-2,0
STARLINK-37761,2026-114U,2026-06-09T09:47:49.939296,15.80912722,.000115,53.1587,241.0807,75.5606,284.5544,0,U,69200,999,354,.81006E-3,.16252E-2,0
STARLINK-37754,2026-114V,2026-06-09T09:46:28.382016,15.80903848,.0001031,53.1587,241.0749,95.8197,264.2944,0,U,69201,999,354,.72555E-3,.145138E-2,0
STARLINK-37649,2026-114W,2026-06-09T09:45:40.336704,15.80898445,.000091,53.1587,241.0713,68.8942,291.2177,0,U,69202,999,354,.67609E-3,.135002E-2,0
STARLINK-37604,2026-114X,2026-06-09T09:44:35.547072,15.80906330,.0001236,53.1586,241.0664,45.9031,314.2094,0,U,69203,999,354,.77131E-3,.154524E-2,0
STARLINK-37669,2026-114Y,2026-06-09T09:43:30.709920,15.80898843,.0001045,53.1586,241.0611,77.3786,282.7354,0,U,69204,999,354,.67465E-3,.13471E-2,0
STARLINK-37691,2026-114Z,2026-06-09T12:00:02.998944,15.78114057,.000105,53.1593,240.5951,80.6930,95.1314,0,U,69205,999,357,-.50634E-3,-.87916E-3,0
STARLINK-37671,2026-114AA,2026-06-09T09:41:21.064992,15.80899060,.0001035,53.1585,241.0501,68.7314,291.3819,0,U,69206,999,354,.6664E-3,.133031E-2,0
STARLINK-37647,2026-114AB,2026-06-09T09:42:25.856352,15.80900583,.000095,53.1585,241.0561,75.8017,284.3111,0,U,69207,999,354,.66817E-3,.133401E-2,0
STARLINK-37562,2026-114AC,2026-06-09T09:39:11.411424,15.80902121,.0001054,53.1583,241.0401,61.5749,298.5380,0,U,69208,999,354,.64846E-3,.129393E-2,0
STARLINK-37682,2026-114AD,2026-06-09T11:09:08.853120,15.80892058,.0001045,53.1585,240.7188,72.3938,287.7199,0,U,69209,999,355,.59068E-3,.117584E-2,0
STARLINK-37402,2026-114AE,2026-06-09T11:08:03.951168,15.80901112,.0000878,53.1584,240.7138,78.8315,281.2806,0,U,69210,999,355,.65224E-3,.130158E-2,0
STARLINK-37613,2026-115A,2026-06-09T12:00:02.998944,15.65351180,.0001719,97.2844,177.5025,106.4872,104.0652,0,U,69211,999,345,-.28458E-1,-.2471074E-1,0
STARLINK-37713,2026-115B,2026-06-09T12:00:02.998944,15.77486587,.0001616,97.2836,177.5390,108.6812,185.3768,0,U,69212,999,345,-.175E-1,-.2476276E-1,0
STARLINK-37716,2026-115C,2026-06-09T10:45:35.375904,15.80849807,.0001444,97.2833,177.4857,87.8082,272.3351,0,U,69213,999,346,.66791E-3,.129918E-2,0
STARLINK-37620,2026-115D,2026-06-09T12:00:02.998944,15.60985075,.0001775,97.2842,177.4899,80.6265,91.0794,0,U,69214,999,345,-.32982E-1,-.2418733E-1,0
STARLINK-37700,2026-115E,2026-06-09T12:00:02.998944,15.50273404,.0001709,97.2849,177.4160,113.9239,250.8497,0,U,69215,999,345,-.29098E-1,-.146739E-1,0
STARLINK-37766,2026-115F,2026-06-09T09:10:06.280032,15.80859249,.000133,97.2827,177.4218,110.6972,249.4439,0,U,69216,999,345,.83268E-3,.162685E-2,0
STARLINK-37763,2026-115G,2026-06-09T09:09:18.859392,15.80151400,.0000418,97.2827,177.4226,6.8216,353.3057,0,U,69217,999,345,-.35913E-2,-.62182E-2,0
STARLINK-37724,2026-115H,2026-06-09T09:07:59.119968,15.80881222,.0001259,97.2830,177.4244,88.0212,272.1201,0,U,69218,999,345,.10288E-2,.202151E-2,0
STARLINK-37758,2026-115J,2026-06-09T09:03:21.938400,15.80887292,.0001367,97.2827,177.4286,99.1694,260.9729,0,U,69219,999,345,.11212E-2,.220873E-2,0
STARLINK-37201,2026-115K,2026-06-09T07:33:59.447232,15.80842665,.0001543,97.2836,177.3603,106.4412,253.7026,0,U,69220,999,344,.50891E-3,.98569E-3,0
STARLINK-37728,2026-115L,2026-06-09T09:01:39.620064,15.80878689,.0001091,97.2832,177.4309,106.7542,253.3846,0,U,69221,999,345,.10225E-2,.200866E-2,0
STARLINK-37760,2026-115M,2026-06-09T09:05:37.131072,15.80852773,.0002739,97.2834,177.4271,70.4904,289.6660,0,U,69222,999,345,.93807E-3,.183704E-2,0
STARLINK-37759,2026-115N,2026-06-09T09:00:37.804320,15.80878428,.0001836,97.2832,177.4307,57.4523,302.6923,0,U,69223,999,345,.11068E-2,.217868E-2,0
STARLINK-37725,2026-115P,2026-06-09T09:01:11.637696,15.82595982,.0007062,97.2836,177.4304,327.9132,32.1706,0,U,69224,999,345,.12866E-1,.313797E-1,0
STARLINK-37770,2026-115Q,2026-06-09T09:02:19.106592,15.80881867,.00018,97.2833,177.4295,74.1204,286.0262,0,U,69225,999,345,.11692E-2,.230522E-2,0
STARLINK-37736,2026-115R,2026-06-09T07:30:08.182944,15.80894884,.0000918,97.2833,177.3640,31.1114,329.0209,0,U,69226,999,344,.16464E-2,.328573E-2,0
STARLINK-37737,2026-115S,2026-06-09T08:58:24.864096,15.80882816,.0001315,97.2831,177.4329,108.8654,251.2757,0,U,69227,999,345,.10462E-2,.205681E-2,0
